STARLINK-30122          
1 56688U 23067A   23321.88370020  .00001784  00000+0  14714-3 0  9999
2 56688  43.0015 174.5526 0001148 264.1951  95.8760 15.02533942 28942
STARLINK-30129          
1 56689U 23067B   23321.94018712  .00000626  00000+0  61403-4 0  9996
2 56689  43.0025 174.1235 0001326 265.7601  94.3090 15.02538280 28887
STARLINK-30124          
1 56690U 23067C   23321.93685924  .00000999  00000+0  89027-4 0  9997
2 56690  43.0025 174.1079 0001263 267.7188  92.3510 15.02538501 28888
STARLINK-30087          
1 56691U 23067D   23321.90330470  .00010135  00000+0  55058-3 0  9997
2 56691  42.9999 168.8065 0011849 265.8748  94.0745 15.14550926 28948
STARLINK-30036          
1 56692U 23067E   23321.93019623  .00002259  00000+0  18220-3 0  9993
2 56692  43.0027 174.0744 0001339 273.0819  86.9870 15.02543248 27752
STARLINK-30067          
1 56693U 23067F   23321.92353854  .00001278  00000+0  10963-3 0  9996
2 56693  43.0012 174.0248 0001362 268.6001  91.4686 15.02539760 28880
STARLINK-30126          
1 56694U 23067G   23321.86039326  .00002168  00000+0  17552-3 0  9995
2 56694  43.0012 174.4103 0001282 267.7081  92.3615 15.02539256 28875
STARLINK-30121          
1 56695U 23067H   23321.92022096  .00015687  00000+0  11732-2 0  9992
2 56695  42.9994 173.9858 0001371 268.4045  91.6640 15.02552341 28882
STARLINK-30130          
1 56697U 23067K   23322.02652699  .00006139  00000+0  46903-3 0  9995
2 56697  43.0010 173.0737 0001293 275.3328  84.7366 15.02542339 28059
STARLINK-30068          
1 56698U 23067L   23321.90049359  .00001102  00000+0  96678-4 0  9995
2 56698  43.0026 160.8591 0001209 274.0955  85.9749 15.02533455 28774
STARLINK-30127          
1 56699U 23067M   23321.98335472  .00003083  00000+0  24316-3 0  9997
2 56699  43.0016 173.6134 0001281 277.9425  82.1272 15.02546457 28049
STARLINK-30053          
1 56700U 23067N   23321.91355012 -.00000900  00000+0 -51588-4 0  9994
2 56700  43.0016 173.9510 0001332 268.1608  91.9081 15.02530287 28887
STARLINK-30125          
1 56701U 23067P   23321.91022083  .00002272  00000+0  18323-3 0  9995
2 56701  43.0010 173.9247 0001213 267.6604  92.4100 15.02538113 28881
STARLINK-30117          
1 56702U 23067Q   23321.94683650  .00002360  00000+0  18968-3 0  9995
2 56702  43.0030 174.1321 0001246 270.2242  89.8458 15.02539453 28888
STARLINK-30132          
1 56703U 23067R   23321.84041225  .00002513  00000+0  20100-3 0  9992
2 56703  43.0014 174.2595 0001152 276.5897  83.4814 15.02542600 28879
STARLINK-30066          
1 56704U 23067S   23321.95339160  .00007427  00000+0  56397-3 0  9999
2 56704  43.0000 173.3793 0001200 277.2022  82.8684 15.02554887 28897
STARLINK-30080          
1 56705U 23067T   23321.96364421  .00002124  00000+0  17221-3 0  9991
2 56705  43.0022 160.5368 0001160 272.0236  88.0473 15.02541586 28192
STARLINK-30079          
1 56706U 23067U   23321.90023176  .00002238  00000+0  18069-3 0  9992
2 56706  43.0018 173.8467 0001299 262.6286  97.4409 15.02542500 28884
STARLINK-30070          
1 56707U 23067V   23321.97003688  .00000849  00000+0  77892-4 0  9992
2 56707  43.0014 173.5120 0001302 271.0557  89.0137 15.02541814 28044
STARLINK-30071          
1 56708U 23067W   23321.95671937  .00000633  00000+0  61949-4 0  9996
2 56708  43.0021 173.4102 0001250 270.1280  89.9419 15.02537812 28895
STARLINK-30085          
1 56709U 23067X   23322.02985643  .00002653  00000+0  21136-3 0  9995
2 56709  43.0012 173.0991 0001313 270.5036  89.5655 15.02541515 28052
ONEWEB-0561             
1 56710U 23068A   23321.94720342  .00000057  00000+0  88782-4 0  9998
2 56710  88.2905  97.2938 0001279  69.6095 290.5184 13.34313830 25651
ONEWEB-0668             
1 56711U 23068B   23321.70707504 -.00001122  00000+0 -15610-3 0  9993
2 56711  86.7240  66.2031 0013298 313.1350  46.8757 14.78807073 26927
ONEWEB-0676             
1 56712U 23068C   23321.72325228  .00000715  00000+0  93977-4 0  9993
2 56712  86.7206  66.1153 0012816 317.7206  42.3026 14.78687820 26925
ONEWEB-0677             
1 56713U 23068D   23321.92884095  .00000034  00000+0  42259-4 0  9999
2 56713  88.3219  95.3028 0002061  82.4442 277.6934 13.34768470 25834
ONEWEB-0678             
1 56714U 23068E   23321.65758954 -.00004395  00000+0 -11709-1 0  9993
2 56714  87.8993  86.7894 0001465 114.6729 245.4554 13.15576185 25364
ONEWEB-0679             
1 56715U 23068F   23321.36401178  .00002035  00000+0  27280-3 0  9995
2 56715  86.7235  66.3279 0013341 314.6343  45.3789 14.78856980 26871
ONEWEB-0680             
1 56716U 23068G   23322.25001157  .00000014  00000+0  00000+0 0  9990
2 56716  87.7691  71.6563 0012894 337.5324 109.4121 13.51042906 27327
ONEWEB-0681             
1 56717U 23068H   23322.25001157  .00000014  00000+0  00000+0 0  9991
2 56717  87.7293  71.7013 0012446 337.0790 253.2302 13.51471774 27308
ONEWEB-0682             
1 56718U 23068J   23321.91668981 -.00029672  00000+0 -65006-1 0  9990
2 56718  87.9482  86.7927 0001741 102.1153 330.6702 13.28768011  5252
ONEWEB-0683             
1 56719U 23068K   23321.59427329  .00000033  00000+0  44211-4 0  9990
2 56719  87.9424  86.8276 0002471 115.4814 244.6579 13.28506787 25482
ONEWEB-0684             
1 56720U 23068L   23321.78829643  .00000128  00000+0  30463-3 0  9996
2 56720  87.9030  86.8561 0001233 119.2107 240.9146 13.15553876 25347
ONEWEB-0686             
1 56721U 23068M   23321.53222534 -.00015404  00000+0 -21132-2 0  9993
2 56721  86.7214  66.2323 0013037 317.5068  42.5142 14.78605639 26899
ONEWEB-0694             
1 56722U 23068N   23321.53745287  .00002579  00000+0  34952-3 0  9991
2 56722  86.7254  66.3271 0012936 315.8963  44.1225 14.78504434 26890
ONEWEB-0696             
1 56723U 23068P   23321.59341083  .00004880  00000+0  12928-1 0  9998
2 56723  87.8997  86.8724 0001629  91.3353 268.7964 13.15520465 26136
ONEWEB-0703             
1 56724U 23068Q   23321.60291723  .00000070  00000+0  15275-3 0  9993
2 56724  87.9012  86.8909 0001165  45.6533 314.4693 13.15549382 25325
ONEWEB-0721             
1 56725U 23068R   23321.55991840  .00002492  00000+0  29911-3 0  9997
2 56725  86.6779  64.8750 0008914 313.5599  46.4884 14.83596074 26972
IRIDIUM 181             
1 56726U 23068S   23321.58250084  .00000465  00000+0  13169-3 0  9995
2 56726  86.8634  70.9395 0003220  99.2890 260.8675 14.43578062 26462
IRIDIUM 177             
1 56727U 23068T   23321.68569176  .00001704  00000+0  22084-3 0  9995
2 56727  86.1994  56.2354 0002133  91.9297 268.2168 14.80221737 26946
IRIDIUM 174             
1 56728U 23068U   23321.54505171  .00001735  00000+0  22483-3 0  9993
2 56728  86.2003  56.3887 0001986  97.7262 262.4185 14.80225862 26928
IRIDIUM 178             
1 56729U 23068V   23321.94532890  .00001612  00000+0  20874-3 0  9992
2 56729  86.5793  63.6030 0002129  90.3673 269.7793 14.80228916 26988
IRIDIUM 179             
1 56730U 23068W   23321.53427059  .00001745  00000+0  22625-3 0  9992
2 56730  86.6801  65.2345 0001913  98.2866 261.8572 14.80230872 26925
2023-069A               
1 56731U 23069A   23322.18731002  .00007724  00000+0  23456-3 0  9998
2 56731  41.0053  19.6645 0028546 355.5904   4.4662 15.33857432 27736
2023-069B               
1 56732U 23069B   23322.14455642  .00013932  00000+0  53719-3 0  9991
2 56732  41.0133  26.5493 0008594 355.0793   4.9941 15.26002279 27655
2023-069C               
1 56733U 23069C   23322.20287353  .00010359  00000+0  29782-3 0  9994
2 56733  41.0065  18.0115 0025306   3.1435 356.9542 15.35407381 27752
PROGRESS-MS 23          
1 56740U 23071A   23321.41134024  .00012504  00000+0  23159-3 0  9999
2 56740  51.6432 289.5972 0000820 300.5175 196.5715 15.49390186425559
NEXTSAT-2               
1 56743U 23072A   23322.15348566  .00004621  00000+0  29731-3 0  9996
2 56743  97.5396 146.1537 0009606  59.2115 301.0058 15.08835758 26631
SNIPE 4                 
1 56744U 23072B   23322.10590667  .00005241  00000+0  32825-3 0  9990
2 56744  97.5471 146.4011 0009424  58.4489 301.7660 15.09764198 26635
SNIPE 2                 
1 56745U 23072C   23322.08825581  .00011177  00000+0  69122-3 0  9999
2 56745  97.5481 146.4484 0009133  64.0307 296.1862 15.09967342 26637
2023-072D               
1 56746U 23072D   23322.11869792  .00006318  00000+0  38674-3 0  9995
2 56746  97.5488 146.5602 0009772  63.4942 296.7288 15.10520992 26642
2023-072E               
1 56747U 23072E   23322.11713270  .00005310  00000+0  32730-3 0  9993
2 56747  97.5491 146.5660 0010426  65.9392 294.2927 15.10332627 26644
2023-072F               
1 56748U 23072F   23322.13634122  .00004706  00000+0  29466-3 0  9994
2 56748  97.5285 146.0733 0010804  65.5926 294.6429 15.09812237 26640
2023-072G               
1 56749U 23072G   23322.16027380  .00004923  00000+0  30184-3 0  9990
2 56749  97.5291 146.2109 0011051  68.0430 292.1973 15.10556028 26653
TROPICS-03              
1 56753U 23073B   23321.92477047  .00007537  00000+0  44558-3 0  9992
2 56753  32.7344 177.2966 0009869  91.6129 268.5672 15.10375948 26534
TROPICS-07              
1 56754U 23073C   23321.91568768  .00008182  00000+0  46533-3 0  9995
2 56754  32.7344 175.2717 0014034  88.3452 271.8826 15.11733634 26572
KONDOR FKA NO.1         
1 56756U 23074A   23321.66871895  .00002822  00000+0  13544-3 0  9999
2 56756  97.4386 153.8115 0001977  72.4771 287.6680 15.19687896 26548
ARABSAT-7B (BADR-8)     
1 56757U 23075A   23322.14811676  .00000156  00000+0  00000+0 0  9993
2 56757   0.0788  28.9708 0002122 300.4076 166.9077  1.00269152  1683
IRNSS-1J (NVS-01)       
1 56759U 23076A   23321.66730803 -.00000325  00000+0  00000+0 0  9993
2 56759   4.5485 270.6523 0007501 349.5904 165.8759  1.00264009  1668
STARLINK-6197           
1 56767U 23078A   23322.16431376 -.00000152  00000+0 -49510-5 0  9997
2 56767  69.9987 328.8165 0002982 271.3456  88.7361 14.98329444 26248
